STARLINK-37682          
1 69209U 26114AD  26166.15443955  .00208589  00000+0  10318-2 0  9993
2 69209  53.1568 212.2041 0001415  50.6767 309.4381 15.80940252  4457
STARLINK-37402          
1 69210U 26114AE  26166.15369122  .00250492  00000+0  12318-2 0  9990
2 69210  53.1569 212.1994 0002025  33.9620 326.1532 15.80949578  4450
STARLINK-37613          
1 69211U 26115A   26166.16668980  .00003452  00000+0  65103-4 0  9991
2 69211  97.2834 183.2630 0001164  92.1154 107.2268 15.49186153  4363
STARLINK-37713          
1 69212U 26115B   26166.16668980 -.00000990  00000+0 -16587-4 0  9990
2 69212  97.2845 183.3861 0001832  90.6924  43.9276 15.49117948  4364
STARLINK-37716          
1 69213U 26115C   26166.16668980 -.02035782  00000+0 -34946-1 0  9996
2 69213  97.2833 183.4428 0001734  92.6210 162.8011 15.54276090  4361
STARLINK-37620          
1 69214U 26115D   26166.14522044  .00032913  00000+0  60410-3 0  9991
2 69214  97.2835 183.2051 0000558 109.8957 250.2355 15.49199280  4346
STARLINK-37700          
1 69215U 26115E   26166.11862860  .00036585  00000+0  67058-3 0  9996
2 69215  97.2834 183.0894 0001199  80.7641 279.3746 15.49216646  4339
STARLINK-37766          
1 69216U 26115F   26166.16668980 -.02514207  00000+0 -34447-1 0  9999
2 69216  97.2843 183.4763 0001248  96.0469 239.9807 15.61017690  4367
STARLINK-37763          
1 69217U 26115G   26166.16668980 -.00939102  00000+0 -15837-1 0  9995
2 69217  97.2842 183.4340 0001494  75.5683 164.3952 15.54393393  4362
STARLINK-37724          
1 69218U 26115H   26166.16668980 -.02620057  00000+0 -33030-1 0  9999
2 69218  97.2845 183.5027 0001288  65.9896 340.8387 15.63310194  4360
STARLINK-37758          
1 69219U 26115J   26166.16668980 -.02553727  00000+0 -31741-1 0  9996
2 69219  97.2842 183.5101 0001464  69.3161 355.7799 15.63564306  4368
STARLINK-37201          
1 69220U 26115K   26166.16668980 -.02625145  00000+0 -32928-1 0  9990
2 69220  97.2840 183.5093 0001443  67.5415 352.3715 15.63443792  4363
STARLINK-37728          
1 69221U 26115L   26166.16668980 -.02540695  00000+0 -33957-1 0  9990
2 69221  97.2845 183.5098 0001145  52.1353 359.9371 15.61699033  4364
STARLINK-37760          
1 69222U 26115M   26166.16668980 -.02592699  00000+0 -30476-1 0  9995
2 69222  97.2839 183.5196 0001337  56.1898  19.5125 15.65026774  4364
STARLINK-37759          
1 69223U 26115N   26166.16668980 -.02232495  00000+0 -40116-1 0  9993
2 69223  97.2839 183.4409 0001792  86.3014 168.8342 15.53340052  4365
STARLINK-37725          
1 69224U 26115P   26166.16668980 -.02282942  00000+0 -42024-1 0  9996
2 69224  97.2837 183.4470 0001688  87.7730 181.2858 15.52760787  4367
STARLINK-37770          
1 69225U 26115Q   26166.16668980 -.02571505  00000+0 -28997-1 0  9996
2 69225  97.2842 183.5283 0001441  62.0998  35.9640 15.66025934  4363
STARLINK-37736          
1 69226U 26115R   26166.16668980 -.02514243  00000+0 -29590-1 0  9993
2 69226  97.2840 183.5155 0001339  46.6084  30.5586 15.64877932  4361
STARLINK-37737          
1 69227U 26115S   26166.16668980 -.02502030  00000+0 -27492-1 0  9994
2 69227  97.2840 183.5371 0001753  66.5927  51.7846 15.66560085  4385
STARLINK-37618          
1 69228U 26115T   26166.16668980 -.01981385  00000+0 -38742-1 0  9998
2 69228  97.2838 183.4387 0002462  76.4045 178.0880 15.50579059  4361
STARLINK-37679          
1 69229U 26115U   26166.16668980 -.03489969  00000+0 -66888-1 0  9994
2 69229  97.2839 183.4451 0002031  96.8067 170.9769 15.52049465  4369
STARLINK-37746          
1 69230U 26115V   26166.16668980 -.00010201  00000+0 -18656-3 0  9994
2 69230  97.2841 183.4244 0000715 116.7934 107.2926 15.49126333  4360
STARLINK-37557          
1 69231U 26115W   26166.16668980  .00001354  00000+0  26551-4 0  9996
2 69231  97.2837 183.3677 0001488  99.2103 346.0131 15.49184650  4363
STARLINK-37745          
1 69232U 26115X   26166.16668980 -.02603779  00000+0 -27190-1 0  9997
2 69232  97.2836 183.5526 0002027  85.5675  78.4998 15.67951506  4369
STARLINK-37739          
1 69233U 26115Y   26166.16668980 -.00799525  00000+0 -15078-1 0  9993
2 69233  97.2841 183.4226 0001340  81.1700 129.2218 15.50883501  4361
STARLINK-37755          
1 69234U 26115Z   26166.09895632  .00103608  00000+0  68647-3 0  9993
2 69234  97.2834 183.4231 0001055  55.6563 304.4801 15.75211508  4359
STARLINK-37665          
1 69238U 26117A   26166.16064950  .00231559  00000+0  10851-2 0  9998
2 69238  53.1583 253.7956 0000747 112.7525 247.3578 15.82045043  2654
STARLINK-37558          
1 69239U 26117B   26166.15969715  .00244347  00000+0  11421-2 0  9994
2 69239  53.1581 253.7886 0001024 133.9346 226.1762 15.82064605  2655
STARLINK-37680          
1 69240U 26117C   26166.15825910  .00255761  00000+0  11929-2 0  9999
2 69240  53.1585 253.7794 0001074  98.6420 261.4725 15.82079125  2658
STARLINK-37742          
1 69241U 26117D   26166.15647486  .00240383  00000+0  11239-2 0  9998
2 69241  53.1587 253.7676 0000908  90.3856 269.7271 15.82069488  2655
